1 27424U 02022A   12046.86379031  .00000446  00000-0  10905-3 0  2147
2 27424 098.2222 349.0963 0001326 088.3145 271.8229 14.57099629520551